[
    {
        "Altitude(m)": 610405.3452750787,
        "Argument of Periapsis(deg)": 0.0,
        "Eccentricity": 0.0,
        "Inclination(deg)": 60.0,
        "Latitude(deg)": 52.11133293947725,
        "Longitude(deg)": 67.47736142871281,
        "Mean Anomaly(deg)": 114.5455,
        "RAAN(deg)": 35.0,
        "Satellite Name": "Test1 161",
        "Satellite Number": 161,
        "Semi-Major Axis(m)": 6980739.136638005,
        "Time(s)": 0
    },
    {
        "Altitude(m)": 610321.9185367022,
        "Argument of Periapsis(deg)": 0.00010418945913296404,
        "Eccentricity": 0.0,
        "Inclination(deg)": 60.0,
        "Latitude(deg)": 51.74604850761746,
        "Longitude(deg)": 68.2462570373651,
        "Mean Anomaly(deg)": 115.16560614546184,
        "RAAN(deg)": 34.99957995086025,
        "Satellite Name": "Test1 161",
        "Satellite Number": 161,
        "Semi-Major Axis(m)": 6980739.136638005,
        "Time(s)": 10
    }
]